NORAD_CAT_ID,OBJECT_NAME,OBJECT_TYPE,EPOCH,MEAN_MOTION,ECCENTRICITY,INCLINATION,RA_OF_ASC_NODE,ARG_OF_PERICENTER,MEAN_ANOMALY,BSTAR,MEAN_MOTION_DOT,MEAN_MOTION_DDOT,TLE_LINE0,TLE_LINE1,TLE_LINE2,SEMIMAJOR_AXIS,PERIOD,APOGEE,PERIGEE,DECAYED
54788.0,STARLINK-5399,PAYLOAD,2023-10-30 17:11:11,15.08836431,0.0001649,53.2169,294.0473,102.255,257.8627,0.00013472,1.856e-05,0.0,0 STARLINK-5399,1 54788U 22175AG  23303.71610601  .00001856  00000-0  13472-3 0  9992,2 54788  53.2169 294.0473 0001649 102.2550 257.8627 15.08836431 50151,6917.891,95.438,540.897,538.616,0.0
54788.0,STARLINK-5399,PAYLOAD,2023-10-31 04:18:53,15.08839301,0.000167,53.2163,291.9668,92.6356,267.4827,0.00014945,2.091e-05,0.0,0 STARLINK-5399,1 54788U 22175AG  23304.17978701  .00002091  00000-0  14945-3 0  9999,2 54788  53.2163 291.9668 0001670  92.6356 267.4827 15.08839301 48062,6917.883,95.438,540.903,538.592,0.0
54788.0,STARLINK-5399,PAYLOAD,2023-10-31 09:05:02,15.08844042,0.000176,53.2165,291.0738,94.2854,265.834,0.0003517,5.314e-05,0.0,0 STARLINK-5399,1 54788U 22175AG  23304.37850658  .00005314  00000-0  35170-3 0  9995,2 54788  53.2165 291.0738 0001760  94.2854 265.8340 15.08844042 50258,6917.868,95.437,540.951,538.515,0.0
54788.0,STARLINK-5399,PAYLOAD,2023-11-01 08:55:49,15.08850987,0.0001732,53.2173,286.6121,90.9005,269.2186,0.00037881,5.748e-05,0.0,0 STARLINK-5399,1 54788U 22175AG  23305.37210451  .00005748  00000-0  37881-3 0  9999,2 54788  53.2173 286.6121 0001732  90.9005 269.2186 15.08850987 48240,6917.847,95.437,540.91,538.514,0.0
54788.0,STARLINK-5399,PAYLOAD,2023-11-02 05:35:50,15.08853425,0.0001645,53.2173,282.7481,94.6344,265.4836,0.0003073,4.608e-05,0.0,0 STARLINK-5399,1 54788U 22175AG  23306.23322083  .00004608  00000-0  30730-3 0  9990,2 54788  53.2173 282.7481 0001645  94.6344 265.4836 15.08853425 48370,6917.839,95.437,540.842,538.566,0.0
54788.0,STARLINK-5399,PAYLOAD,2023-11-02 21:29:42,15.08835548,0.0002077,53.2176,279.773,84.0486,276.0743,-0.00011718,-2.153e-05,0.0,0 STARLINK-5399,1 54788U 22175AG  23306.89562542 -.00002153  00000-0 -11718-3 0  9998,2 54788  53.2176 279.7730 0002077  84.0486 276.0743 15.08835548 50639,6917.894,95.438,541.196,538.322,0.0
54788.0,STARLINK-5399,PAYLOAD,2023-11-03 05:26:37,15.08841875,0.0001728,53.2182,278.29,99.0171,261.1016,0.00014257,1.982e-05,0.0,0 STARLINK-5399,1 54788U 22175AG  23307.22682346  .00001982  00000-0  14257-3 0  9999,2 54788  53.2182 278.2900 0001728  99.0171 261.1016 15.08841875 48521,6917.875,95.437,540.935,538.544,0.0
54788.0,STARLINK-5399,PAYLOAD,2023-11-03 07:02:00,15.08843288,0.0001674,53.2179,277.9919,96.6354,263.4829,0.0003569,5.397e-05,0.0,0 STARLINK-5399,1 54788U 22175AG  23307.29306277  .00005397  00000-0  35690-3 0  9990,2 54788  53.2179 277.9919 0001674  96.6354 263.4829 15.08843288 50697,6917.87,95.437,540.893,538.577,0.0
54788.0,STARLINK-5399,PAYLOAD,2023-11-04 03:42:02,15.08832473,0.0001642,53.2175,274.1259,95.853,264.265,0.00010505,1.384e-05,0.0,0 STARLINK-5399,1 54788U 22175AG  23308.15419030  .00001384  00000-0  10505-3 0  9998,2 54788  53.2175 274.1259 0001642  95.8530 264.2650 15.08832473 48660,6917.903,95.438,540.904,538.632,0.0
54788.0,STARLINK-5399,PAYLOAD,2023-11-04 08:28:11,15.08844371,0.0001596,53.2172,273.2329,90.2325,269.885,0.00019895,2.88e-05,0.0,0 STARLINK-5399,1 54788U 22175AG  23308.35290665  .00002880  00000-0  19895-3 0  9994,2 54788  53.2172 273.2329 0001596  90.2325 269.8850 15.08844371 48690,6917.867,95.437,540.836,538.628,0.0
54788.0,STARLINK-5399,PAYLOAD,2023-11-04 14:49:43,15.08842307,0.0001699,53.2173,272.0423,86.4471,273.6715,0.00019001,2.737e-05,0.0,0 STARLINK-5399,1 54788U 22175AG  23308.61786924  .00002737  00000-0  19001-3 0  9991,2 54788  53.2173 272.0423 0001699  86.4471 273.6715 15.08842307 50891,6917.873,95.437,540.914,538.563,0.0
54788.0,STARLINK-5399,PAYLOAD,2023-11-05 03:32:49,15.08845385,0.000175,53.2169,269.6639,85.0718,275.0474,0.00031398,4.713e-05,0.0,0 STARLINK-5399,1 54788U 22175AG  23309.14779028  .00004713  00000-0  31398-3 0  9996,2 54788  53.2169 269.6639 0001750  85.0718 275.0474 15.08845385 48810,6917.864,95.437,540.94,538.518,0.0
54788.0,STARLINK-5399,PAYLOAD,2023-11-05 06:43:34,15.08859234,0.0001569,53.217,269.0707,93.6666,266.4505,0.0006108,9.451e-05,0.0,0 STARLINK-5399,1 54788U 22175AG  23309.28026422  .00009451  00000-0  61080-3 0  9999,2 54788  53.2170 269.0707 0001569  93.6666 266.4505 15.08859234 48836,6917.822,95.436,540.772,538.601,0.0
54788.0,STARLINK-5399,PAYLOAD,2023-11-06 03:23:34,15.08865238,0.0001489,53.2167,265.2024,110.148,249.9673,0.00037372,5.669e-05,0.0,0 STARLINK-5399,1 54788U 22175AG  23310.14137169  .00005669  00000-0  37372-3 0  9991,2 54788  53.2167 265.2024 0001489 110.1480 249.9673 15.08865238 48969,6917.803,95.436,540.698,538.638,0.0
54788.0,STARLINK-5399,PAYLOAD,2023-11-06 06:34:20,15.08888307,0.0001616,53.2175,264.608,96.2331,263.8845,0.00080138,0.00012506,0.0,0 STARLINK-5399,1 54788U 22175AG  23310.27384301  .00012506  00000-0  80138-3 0  9993,2 54788  53.2175 264.6080 0001616  96.2331 263.8845 15.08888307 48984,6917.733,95.434,540.716,538.48,0.0
54788.0,STARLINK-5399,PAYLOAD,2023-11-07 03:14:22,15.08826339,0.0001647,53.2186,260.743,86.5241,273.594,-0.00032121,-5.395e-05,0.0,0 STARLINK-5399,1 54788U 22175AG  23311.13498613 -.00005395  00000-0 -32121-3 0  9990,2 54788  53.2186 260.7430 0001647  86.5241 273.5940 15.08826339 49115,6917.922,95.438,540.927,538.648,0.0
54788.0,STARLINK-5399,PAYLOAD,2023-11-07 14:22:04,15.08827059,0.0001308,53.2175,258.6618,81.202,278.912,-0.00021071,-3.639e-05,0.0,0 STARLINK-5399,1 54788U 22175AG  23311.59866760 -.00003639  00000-0 -21071-3 0  9993,2 54788  53.2175 258.6618 0001308  81.2020 278.9120 15.08827059 51345,6917.92,95.438,540.69,538.88,0.0
54788.0,STARLINK-5399,PAYLOAD,2023-11-08 03:05:10,15.08842463,0.0001392,53.2171,256.2849,77.8434,282.2714,0.00041005,6.244e-05,0.0,0 STARLINK-5399,1 54788U 22175AG  23312.12859109  .00006244  00000-0  41005-3 0  9994,2 54788  53.2171 256.2849 0001392  77.8434 282.2714 15.08842463 49265,6917.873,95.437,540.701,538.775,0.0
54788.0,STARLINK-5399,PAYLOAD,2023-11-08 06:15:56,15.0883776,0.0001358,53.2172,255.6889,78.0522,282.0623,0.00050713,7.792e-05,0.0,0 STARLINK-5399,1 54788U 22175AG  23312.26106735  .00007792  00000-0  50713-3 0  9994,2 54788  53.2172 255.6889 0001358  78.0522 282.0623 15.08837760 51440,6917.887,95.438,540.692,538.813,0.0
54788.0,STARLINK-5399,PAYLOAD,2023-11-09 02:55:57,15.08848896,0.0001362,53.2164,251.8229,81.8915,278.2232,0.00045437,6.952e-05,0.0,0 STARLINK-5399,1 54788U 22175AG  23313.12219053  .00006952  00000-0  45437-3 0  9992,2 54788  53.2164 251.8229 0001362  81.8915 278.2232 15.08848896 49419,6917.853,95.437,540.66,538.776,0.0
54788.0,STARLINK-5399,PAYLOAD,2023-11-09 06:06:43,15.08855156,0.0001355,53.2162,251.2266,81.3439,278.7707,0.0005386,8.298e-05,0.0,0 STARLINK-5399,1 54788U 22175AG  23313.25466834  .00008298  00000-0  53860-3 0  9991,2 54788  53.2162 251.2266 0001355  81.3439 278.7707 15.08855156 51591,6917.834,95.437,540.636,538.762,0.0
54788.0,STARLINK-5399,PAYLOAD,2023-11-10 02:46:44,15.0884931,0.0001285,53.2176,247.3624,94.2004,265.9135,0.00027138,4.035e-05,0.0,0 STARLINK-5399,1 54788U 22175AG  23314.11579082  .00004035  00000-0  27138-3 0  9991,2 54788  53.2176 247.3624 0001285  94.2004 265.9135 15.08849310 49565,6917.852,95.437,540.606,538.828,0.0
54788.0,STARLINK-5399,PAYLOAD,2023-11-10 12:19:03,15.08843333,0.0001205,53.217,245.5763,86.5114,273.6016,0.00027045,4.019e-05,0.0,0 STARLINK-5399,1 54788U 22175AG  23314.51323180  .00004019  00000-0  27045-3 0  9990,2 54788  53.2170 245.5763 0001205  86.5114 273.6016 15.08843333 51781,6917.87,95.437,540.569,538.902,0.0
54788.0,STARLINK-5399,PAYLOAD,2023-11-11 01:02:08,15.08832306,0.0001345,53.2176,243.199,94.5374,265.5772,-0.00011883,-2.178e-05,0.0,0 STARLINK-5399,1 54788U 22175AG  23315.04315674 -.00002178  00000-0 -11883-3 0  9997,2 54788  53.2176 243.1990 0001345  94.5374 265.5772 15.08832306 49701,6917.904,95.438,540.699,538.838,0.0
54788.0,STARLINK-5399,PAYLOAD,2023-11-11 12:09:50,15.08841312,0.0001578,53.2186,241.1193,88.9617,271.1556,-2.5706e-05,-6.97e-06,0.0,0 STARLINK-5399,1 54788U 22175AG  23315.50683337 -.00000697  00000-0 -25706-4 0  9996,2 54788  53.2186 241.1193 0001578  88.9617 271.1556 15.08841312 49777,6917.876,95.437,540.833,538.65,0.0
54788.0,STARLINK-5399,PAYLOAD,2023-11-12 04:03:42,15.08840612,0.0001549,53.2184,238.1445,87.9868,272.1301,4.8024e-05,4.76e-06,0.0,0 STARLINK-5399,1 54788U 22175AG  23316.16923794  .00000476  00000-0  48024-4 0  9994,2 54788  53.2184 238.1445 0001549  87.9868 272.1301 15.08840612 52030,6917.879,95.438,540.815,538.672,0.0
54788.0,STARLINK-5399,PAYLOAD,2023-11-13 02:19:06,15.08844852,0.0001697,53.2186,233.9835,75.9123,284.2058,0.00013638,1.883e-05,0.0,0 STARLINK-5399,1 54788U 22175AG  23317.09659924  .00001883  00000-0  13638-3 0  9993,2 54788  53.2186 233.9835 0001697  75.9123 284.2058 15.08844852 50012,6917.866,95.437,540.905,538.557,0.0
54788.0,STARLINK-5399,PAYLOAD,2023-11-13 11:51:25,15.08843733,0.0001719,53.2183,232.1996,74.7768,285.3414,0.00010689,1.414e-05,0.0,0 STARLINK-5399,1 54788U 22175AG  23317.49404011  .00001414  00000-0  10689-3 0  9995,2 54788  53.2183 232.1996 0001719  74.7768 285.3414 15.08843733 52236,6917.869,95.437,540.923,538.545,0.0
54788.0,STARLINK-5399,PAYLOAD,2023-11-14 00:34:30,15.08841834,0.0001566,53.218,229.8205,81.9255,278.1915,4.9823e-05,5.05e-06,0.0,0 STARLINK-5399,1 54788U 22175AG  23318.02396288  .00000505  00000-0  49823-4 0  9994,2 54788  53.2180 229.8205 0001566  81.9255 278.1915 15.08841834 50155,6917.875,95.437,540.823,538.656,0.0
54788.0,STARLINK-5399,PAYLOAD,2023-11-14 11:42:11,15.08845426,0.0001626,53.219,227.7379,80.3031,279.8144,7.0521e-05,8.35e-06,0.0,0 STARLINK-5399,1 54788U 22175AG  23318.48763851  .00000835  00000-0  70521-4 0  9993,2 54788  53.2190 227.7379 0001626  80.3031 279.8144 15.08845426 52387,6917.864,95.437,540.854,538.604,0.0
